     2.10           G: GLONASS NAV DATA                     RINEX VERSION / TYPE
teqc  2015Jun23                         20210518 02:25:49UTCPGM / RUN BY / DATE
Linux 2.4.21-27.ELsmp|Opteron|gcc -static|Linux x86_64|=+   COMMENT
  2021     4    24    1.303851604462D-08                    CORR TO SYSTEM TIME
                                                            END OF HEADER
 2 21  4 25  9 15  0.0 4.761349409819D-04 9.094947017729D-13 3.240000000000D+04
   -4.437190429688D+03-2.214409828186D+00 9.313225746155D-10 0.000000000000D+00
    1.487910058594D+04 1.678129196167D+00-1.862645149231D-09-4.000000000000D+00
   -2.020981835938D+04 1.712339401245D+00 2.793967723846D-09 0.000000000000D+00
 8 21  4 25  9 15  0.0-5.868542939425D-05 0.000000000000D+00 3.240000000000D+04
   -2.114987890625D+04 1.363820075989D+00-2.793967723846D-09 0.000000000000D+00
    8.404816894531D+03-8.044939041138D-01-3.725290298462D-09 6.000000000000D+00
    1.159832031250D+04 3.084172248840D+00-1.862645149231D-09 0.000000000000D+00
13 21  4 25  9 15  0.0-5.391612648964D-05-0.000000000000D+00 3.240000000000D+04
    2.754277832031D+03 1.497611999512D-01 3.725290298462D-09 0.000000000000D+00
    2.535630664062D+04-7.283687591553D-02-9.313225746155D-10-2.000000000000D+00
   -4.211743164062D+02-3.566865921021D+00 0.000000000000D+00 0.000000000000D+00
24 21  4 25  9 15  0.0 4.019401967525D-05 1.818989403546D-12 3.240000000000D+04
    7.392529785156D+03-2.440210342407D+00 3.725290298462D-09 0.000000000000D+00
    1.391904785156D+04-1.262096405029D+00 0.000000000000D+00 2.000000000000D+00
    2.007306640625D+04 1.774387359619D+00-1.862645149231D-09 0.000000000000D+00
14 21  4 25  9 45  0.0 6.353110074997D-05 0.000000000000D+00 3.420000000000D+04
    1.055282080078D+04 4.865961074829D-01 4.656612873077D-09 0.000000000000D+00
    2.024559814453D+04 1.482686042786D+00-0.000000000000D+00-7.000000000000D+00
    1.137053955078D+04-3.094820022583D+00-9.313225746155D-10 0.000000000000D+00
12 21  4 25  9 45  0.0 2.236887812614D-04 2.728484105319D-12 3.420000000000D+04
   -6.362923339844D+03-5.697813034058D-01-0.000000000000D+00 0.000000000000D+00
    1.437264404297D+04-2.694895744324D+00-1.862645149231D-09-1.000000000000D+00
   -2.007423339844D+04-1.744853973389D+00 2.793967723846D-09 0.000000000000D+00
 1 21  4 25  9 45  0.0 7.842294871807D-05 0.000000000000D+00 3.420000000000D+04
   -1.910873144531D+04 4.146604537964D-01-1.862645149231D-09 0.000000000000D+00
    1.657059716797D+04-2.113208770752D-01-3.725290298462D-09 1.000000000000D+00
    3.248801269531D+03 3.525838851929D+00-9.313225746155D-10 0.000000000000D+00
 2 21  4 25  9 45  0.0 4.761377349496D-04 9.094947017729D-13 3.420000000000D+04
   -7.853348144531D+03-1.564547538757D+00 0.000000000000D+00 0.000000000000D+00
    1.789127001953D+04 1.623414039612D+00-2.793967723846D-09-4.000000000000D+00
   -1.638463281250D+04 2.510014533997D+00 1.862645149231D-09 0.000000000000D+00
 8 21  4 25  9 45  0.0-5.868449807167D-05 0.000000000000D+00 3.420000000000D+04
   -1.832640576172D+04 1.728352546692D+00-2.793967723846D-09 0.000000000000D+00
    6.364885742188D+03-1.466629981995D+00-1.862645149231D-09 6.000000000000D+00
    1.663208740234D+04 2.472888946533D+00-2.793967723846D-09 0.000000000000D+00
13 21  4 25  9 45  0.0-5.391705781221D-05-0.000000000000D+00 3.420000000000D+04
    2.852063964844D+03-7.923316955566D-02 2.793967723846D-09 0.000000000000D+00
    2.444074853516D+04-9.291496276855D-01-1.862645149231D-09-2.000000000000D+00
   -6.742316406250D+03-3.411043167114D+00 9.313225746155D-10 0.000000000000D+00
24 21  4 25  9 45  0.0 4.019588232040D-05 1.818989403546D-12 3.420000000000D+04
    2.543104003906D+03-2.908737182617D+00 1.862645149231D-09 0.000000000000D+00
    1.186652929688D+04-9.863939285278D-01-0.000000000000D+00 2.000000000000D+00
    2.245105859375D+04 8.507165908813D-01-2.793967723846D-09 0.000000000000D+00
14 21  4 25 10 15  0.0 6.353203207254D-05 0.000000000000D+00 3.600000000000D+04
    1.138514062500D+04 3.966321945190D-01 3.725290298462D-09 0.000000000000D+00
    2.216482177734D+04 6.428794860840D-01-9.313225746155D-10-7.000000000000D+00
    5.432079101562D+03-3.460620880127D+00-0.000000000000D+00 0.000000000000D+00
12 21  4 25 10 15  0.0 2.236934378743D-04 2.728484105319D-12 3.600000000000D+04
   -7.840004882812D+03-1.071186065674D+00-1.862645149231D-09 0.000000000000D+00
    9.310050781250D+03-2.879729270935D+00-1.862645149231D-09-1.000000000000D+00
   -2.239711083984D+04-8.192529678345D-01 2.793967723846D-09 0.000000000000D+00
 1 21  4 25 10 15  0.0 7.842388004065D-05 0.000000000000D+00 3.600000000000D+04
   -1.789777148438D+04 8.923244476318D-01-2.793967723846D-09 0.000000000000D+00
    1.555458935547D+04-9.327859878540D-01-2.793967723846D-09 1.000000000000D+00
    9.387524414062D+03 3.250649452209D+00-9.313225746155D-10 0.000000000000D+00
 2 21  4 25 10 15  0.0 4.761405289173D-04 9.094947017729D-13 3.600000000000D+04
   -1.004328320312D+04-8.709650039673D-01-9.313225746155D-10 0.000000000000D+00
    2.055765087891D+04 1.294022560120D+00-2.793967723846D-09-4.000000000000D+00
   -1.129129150391D+04 3.112336158752D+00 9.313225746155D-10 0.000000000000D+00
13 21  4 25 10 15  0.0-5.391798913479D-05-0.000000000000D+00 3.600000000000D+04
    2.346934082031D+03-5.104370117188D-01 1.862645149231D-09 0.000000000000D+00
    2.209828710938D+04-1.641407966614D+00-1.862645149231D-09-2.000000000000D+00
   -1.254245361328D+04-2.991778373718D+00 1.862645149231D-09 0.000000000000D+00
 3 21  4 25 10 15  0.0 3.481376916170D-05 0.000000000000D+00 3.648000000000D+04
    3.674030761719D+03-1.883082389832D+00 9.313225746155D-10 0.000000000000D+00
    1.214031445312D+04 2.382541656494D+00-9.313225746155D-10 5.000000000000D+00
   -2.209090771484D+04 9.893503189087D-01 2.793967723846D-09 0.000000000000D+00
14 21  4 25 10 45  0.0 6.353203207254D-05 0.000000000000D+00 3.780000000000D+04
    1.183352636719D+04 6.289577484131D-02 2.793967723846D-09 0.000000000000D+00
    2.257004589844D+04-1.803083419800D-01-1.862645149231D-09-7.000000000000D+00
   -9.266630859375D+02-3.558732986450D+00 9.313225746155D-10 0.000000000000D+00
 3 21  4 25 10 45  0.0 3.481376916170D-05 0.000000000000D+00 3.780000000000D+04
    7.686162109375D+02-1.331331253052D+00 0.000000000000D+00 0.000000000000D+00
    1.641908593750D+04 2.323414802551D+00-1.862645149231D-09 5.000000000000D+00
   -1.947618994141D+04 1.896765708923D+00 2.793967723846D-09 0.000000000000D+00
 1 21  4 25 10 45  0.0 7.842481136322D-05 0.000000000000D+00 3.780000000000D+04
   -1.604708691406D+04 1.120270729065D+00-3.725290298462D-09 0.000000000000D+00
    1.319058007812D+04-1.690555572510D+00-1.862645149231D-09 1.000000000000D+00
    1.479992822266D+04 2.724099159241D+00-2.793967723846D-09 0.000000000000D+00
 2 21  4 25 10 45  0.0 4.761433228850D-04 9.094947017729D-13 3.780000000000D+04
   -1.102998535156D+04-2.454357147217D-01-1.862645149231D-09 0.000000000000D+00
    2.239821875000D+04 7.135171890259D-01-2.793967723846D-09-4.000000000000D+00
   -5.325357421875D+03 3.473401069641D+00 0.000000000000D+00 0.000000000000D+00
13 21  4 25 10 45  0.0-5.391892045736D-05-0.000000000000D+00 3.780000000000D+04
    9.379594726562D+02-1.068324089050D+00 0.000000000000D+00 0.000000000000D+00
    1.867071679688D+04-2.123208045959D+00-1.862645149231D-09-2.000000000000D+00
   -1.737388867188D+04-2.341725349426D+00 1.862645149231D-09 0.000000000000D+00
24 21  4 25 10 45  0.0 4.020240157843D-05 1.818989403546D-12 3.834000000000D+04
   -8.464668457031D+03-3.003161430359D+00-9.313225746155D-10 0.000000000000D+00
    9.868728515625D+03-9.261035919189D-02-9.313225746155D-10 2.000000000000D+00
    2.195847558594D+04-1.117341995239D+00-2.793967723846D-09 0.000000000000D+00
15 21  4 25 10 45  0.0 1.041693612933D-04-0.000000000000D+00 3.912000000000D+04
    1.550791601562D+04 1.109222412109D+00 4.656612873077D-09 0.000000000000D+00
    1.311199853516D+04 1.801360130310D+00-9.313225746155D-10 0.000000000000D+00
    1.545220507812D+04-2.644309997559D+00-9.313225746155D-10 0.000000000000D+00
15 21  4 25 11 15  0.0 1.041684299707D-04-0.000000000000D+00 3.960000000000D+04
    1.738228906250D+04 9.294328689575D-01 3.725290298462D-09 0.000000000000D+00
    1.567543115234D+04 1.040349006653D+00-1.862645149231D-09 0.000000000000D+00
    1.015714257812D+04-3.200969696045D+00-0.000000000000D+00 0.000000000000D+00
13 21  4 25 11 15  0.0-5.391985177994D-05-0.000000000000D+00 3.960000000000D+04
   -1.514606445312D+03-1.651874542236D+00-9.313225746155D-10 0.000000000000D+00
    1.462335253906D+04-2.325506210327D+00-1.862645149231D-09-2.000000000000D+00
   -2.086411425781D+04-1.511219024658D+00 2.793967723846D-09 0.000000000000D+00
 2 21  4 25 11 15  0.0 4.761470481753D-04 1.818989403546D-12 3.960000000000D+04
   -1.102566406250D+04 2.164878845215D-01-3.725290298462D-09 0.000000000000D+00
    2.301451806641D+04-5.222702026367D-02-2.793967723846D-09-4.000000000000D+00
    1.051544433594D+03 3.566149711609D+00-0.000000000000D+00 0.000000000000D+00
 1 21  4 25 11 15  0.0 7.842574268579D-05 0.000000000000D+00 3.960000000000D+04
   -1.402062207031D+04 1.090021133423D+00-2.793967723846D-09 0.000000000000D+00
    9.514764160156D+03-2.371655464172D+00-0.000000000000D+00 1.000000000000D+00
    1.906770605469D+04 1.987137794495D+00-2.793967723846D-09 0.000000000000D+00
 3 21  4 25 11 15  0.0 3.481470048428D-05 0.000000000000D+00 3.960000000000D+04
   -1.102457519531D+03-7.524061203003D-01-9.313225746155D-10 0.000000000000D+00
    2.032991943359D+04 1.974710464478D+00-2.793967723846D-09 5.000000000000D+00
   -1.535170214844D+04 2.655996322632D+00 1.862645149231D-09 0.000000000000D+00
14 21  4 25 11 15  0.0 6.353296339512D-05 0.000000000000D+00 3.960000000000D+04
    1.148798583984D+04-4.755048751831D-01 1.862645149231D-09 0.000000000000D+00
    2.159170361328D+04-8.776254653931D-01-2.793967723846D-09-7.000000000000D+00
   -7.213664550781D+03-3.381407737732D+00 9.313225746155D-10 0.000000000000D+00
